start=new Date('2022-04-14T00:00:00.000Z').valueOf();
sats=[{"INCLINATION":"53.0545","SITE":"AFETR","LAUNCH_DATE":"2020-02-17","EPOCH":"2022-04-13T18:47:08.782656","CLASSIFICATION_TYPE":"U","MEAN_MOTION_DDOT":"0.0000000000000","REF_FRAME":"TEME","ECCENTRICITY":"0.00015290","DECAY_DATE":null,"CENTER_NAME":"EARTH","EPHEMERIS_TYPE":"0","TLE_LINE2":"2 45226  53.0545 287.7609 0001529  55.9362 304.1772 15.06404457120394","BSTAR":"0.00027148000000","OBJECT_NAME":"STARLINK-1217","MEAN_ANOMALY":"304.1772","MEAN_MOTION_DOT":"0.00003765","TLE_LINE1":"1 45226U 20012BA  22103.78274054  .00003765  00000-0  27148-3 0  9995","FILE":"3400454","PERIAPSIS":"546.141","PERIOD":"95.592","SEMIMAJOR_AXIS":"6925.335","ARG_OF_PERICENTER":"55.9362","OBJECT_ID":"2020-012BA","ELEMENT_SET_NO":"999","MEAN_MOTION":"15.06404457","MEAN_ELEMENT_THEORY":"SGP4","GP_ID":"201173462","RCS_SIZE":"LARGE","APOAPSIS":"548.259","NORAD_CAT_ID":"45226","OBJECT_TYPE":"PAYLOAD","RA_OF_ASC_NODE":"287.7609","TIME_SYSTEM":"UTC","COUNTRY_CODE":"US","REV_AT_EPOCH":"12039"},{"OBJECT_NAME":"STARLINK-1221","MEAN_ANOMALY":"289.6925","MEAN_MOTION_DOT":"0.00002975","TLE_LINE1":"1 45227U 20012BB  22103.80487129  .00002975  00000-0  21863-3 0  9998","FILE":"3400454","PERIAPSIS":"546.119","SEMIMAJOR_AXIS":"6925.399","PERIOD":"95.593","ARG_OF_PERICENTER":"70.4242","OBJECT_ID":"2020-012BB","ELEMENT_SET_NO":"999","MEAN_MOTION":"15.06383464","MEAN_ELEMENT_THEORY":"SGP4","GP_ID":"201173713","RCS_SIZE":"LARGE","APOAPSIS":"548.409","NORAD_CAT_ID":"45227","OBJECT_TYPE":"PAYLOAD","RA_OF_ASC_NODE":"287.6551","TIME_SYSTEM":"UTC","COUNTRY_CODE":"US","REV_AT_EPOCH":"12040","INCLINATION":"53.0542","SITE":"AFETR","LAUNCH_DATE":"2020-02-17","EPOCH":"2022-04-13T19:19:00.879456","CLASSIFICATION_TYPE":"U","MEAN_MOTION_DDOT":"0.0000000000000","REF_FRAME":"TEME","ECCENTRICITY":"0.00016530","DECAY_DATE":null,"CENTER_NAME":"EARTH","EPHEMERIS_TYPE":"0","TLE_LINE2":"2 45227  53.0542 287.6551 0001653  70.4242 289.6925 15.06383464120407","BSTAR":"0.00021863000000"},{"BSTAR":"0.00020457000000","TLE_LINE2":"2 45228  53.0553 287.6417 0001724  59.4180 300.6979 15.06394435120377","CENTER_NAME":"EARTH","EPHEMERIS_TYPE":"0","DECAY_DATE":null,"ECCENTRICITY":"0.00017240","REF_FRAME":"TEME","MEAN_MOTION_DDOT":"0.0000000000000","CLASSIFICATION_TYPE":"U","EPOCH":"2022-04-13T19:24:19.909728","SITE":"AFETR","LAUNCH_DATE":"2020-02-17","INCLINATION":"53.0553","REV_AT_EPOCH":"12037","COUNTRY_CODE":"US","TIME_SYSTEM":"UTC","RA_OF_ASC_NODE":"287.6417","NORAD_CAT_ID":"45228","OBJECT_TYPE":"PAYLOAD","APOAPSIS":"548.425","GP_ID":"201172461","RCS_SIZE":"LARGE","MEAN_MOTION":"15.06394435","MEAN_ELEMENT_THEORY":"SGP4","ELEMENT_SET_NO":"999","PERIOD":"95.592","PERIAPSIS":"546.037","SEMIMAJOR_AXIS":"6925.366","ARG_OF_PERICENTER":"59.4180","OBJECT_ID":"2020-012BC","FILE":"3400454","TLE_LINE1":"1 45228U 20012BC  22103.80856377  .00002766  00000-0  20457-3 0  9990","OBJECT_NAME":"STARLINK-1222","MEAN_ANOMALY":"300.6979","MEAN_MOTION_DOT":"0.00002766"},{"TLE_LINE2":"2 45229  53.0550 287.8216 0001833  61.6598 298.4576 15.06395979120374","BSTAR":"0.00034541000000","EPHEMERIS_TYPE":"0","CENTER_NAME":"EARTH","DECAY_DATE":null,"ECCENTRICITY":"0.00018330","REF_FRAME":"TEME","INCLINATION":"53.0550","MEAN_MOTION_DDOT":"0.0000000000000","CLASSIFICATION_TYPE":"U","EPOCH":"2022-04-13T18:31:15.136608","LAUNCH_DATE":"2020-02-17","SITE":"AFETR","TIME_SYSTEM":"UTC","RA_OF_ASC_NODE":"287.8216","OBJECT_TYPE":"PAYLOAD","NORAD_CAT_ID":"45229","APOAPSIS":"548.495","RCS_SIZE":"LARGE","GP_ID":"201172711","REV_AT_EPOCH":"12037","COUNTRY_CODE":"US","TLE_LINE1":"1 45229U 20012BD  22103.77170297  .00004866  00000-0  34541-3 0  9999","MEAN_MOTION_DOT":"0.00004866","MEAN_ANOMALY":"298.4576","OBJECT_NAME":"STARLINK-1226","MEAN_ELEMENT_THEORY":"SGP4","MEAN_MOTION":"15.06395979","ELEMENT_SET_NO":"999","ARG_OF_PERICENTER":"61.6598","OBJECT_ID":"2020-012BD","PERIOD":"95.592","PERIAPSIS":"545.956","SEMIMAJOR_AXIS":"6925.361","FILE":"3400454"},{"MEAN_MOTION_DDOT":"0.0000000000000","CLASSIFICATION_TYPE":"U","EPOCH":"2022-04-13T20:01:27.693984","LAUNCH_DATE":"2020-02-17","SITE":"AFETR","INCLINATION":"53.0535","TLE_LINE2":"2 45230  53.0535 287.5269 0001729  53.9069 306.2080 15.06410949120503","BSTAR":"0.00070381000000","EPHEMERIS_TYPE":"0","CENTER_NAME":"EARTH","ECCENTRICITY":"0.00017290","DECAY_DATE":null,"REF_FRAME":"TEME","MEAN_ELEMENT_THEORY":"SGP4","MEAN_MOTION":"15.06410949","ELEMENT_SET_NO":"999","ARG_OF_PERICENTER":"53.9069","OBJECT_ID":"2020-012BE","PERIAPSIS":"545.983","SEMIMAJOR_AXIS":"6925.315","PERIOD":"95.591","FILE":"3400454","TLE_LINE1":"1 45230U 20012BE  22103.83434831  .00010220  00000-0  70381-3 0  9998","MEAN_MOTION_DOT":"0.00010220","OBJECT_NAME":"STARLINK-1227","MEAN_ANOMALY":"306.2080","REV_AT_EPOCH":"12050","COUNTRY_CODE":"US","RA_OF_ASC_NODE":"287.5269","TIME_SYSTEM":"UTC","OBJECT_TYPE":"PAYLOAD","NORAD_CAT_ID":"45230","APOAPSIS":"548.377","RCS_SIZE":"LARGE","GP_ID":"201172962"},{"CENTER_NAME":"EARTH","EPHEMERIS_TYPE":"0","TLE_LINE2":"2 45231  53.0258 147.1820 0008467 280.2248  79.7816 15.76733336122281","BSTAR":"0.00004656300000","REF_FRAME":"TEME","DECAY_DATE":null,"ECCENTRICITY":"0.00084670","CLASSIFICATION_TYPE":"U","MEAN_MOTION_DDOT":"0.0000000000000","SITE":"AFETR","LAUNCH_DATE":"2020-02-17","EPOCH":"2022-04-13T10:12:14.943744","INCLINATION":"53.0258","REV_AT_EPOCH":"12228","COUNTRY_CODE":"US","NORAD_CAT_ID":"45231","OBJECT_TYPE":"PAYLOAD","TIME_SYSTEM":"UTC","RA_OF_ASC_NODE":"147.1820","GP_ID":"201140652","RCS_SIZE":"LARGE","APOAPSIS":"345.393","ELEMENT_SET_NO":"999","MEAN_MOTION":"15.76733336","MEAN_ELEMENT_THEORY":"SGP4","FILE":"3399963","SEMIMAJOR_AXIS":"6717.840","PERIAPSIS":"334.017","PERIOD":"91.328","ARG_OF_PERICENTER":"280.2248","OBJECT_ID":"2020-012BF","TLE_LINE1":"1 45231U 20012BF  22103.42517296  .00006978  00000-0  46563-4 0  9992","OBJECT_NAME":"STARLINK-1229","MEAN_ANOMALY":"79.7816","MEAN_MOTION_DOT":"0.00006978"},{"ECCENTRICITY":"0.00014850","DECAY_DATE":null,"REF_FRAME":"TEME","BSTAR":"0.00028630000000","TLE_LINE2":"2 45232  53.0542 287.4767 0001485  51.6517 308.4606 15.06408522120497","CENTER_NAME":"EARTH","EPHEMERIS_TYPE":"0","INCLINATION":"53.0542","EPOCH":"2022-04-13T20:17:23.218368","SITE":"AFETR","LAUNCH_DATE":"2020-02-17","MEAN_MOTION_DDOT":"0.0000000000000","CLASSIFICATION_TYPE":"U","APOAPSIS":"548.216","GP_ID":"201171961","RCS_SIZE":"LARGE","RA_OF_ASC_NODE":"287.4767","TIME_SYSTEM":"UTC","NORAD_CAT_ID":"45232","OBJECT_TYPE":"PAYLOAD","COUNTRY_CODE":"US","REV_AT_EPOCH":"12049","OBJECT_NAME":"STARLINK-1235","MEAN_ANOMALY":"308.4606","MEAN_MOTION_DOT":"0.00003986","TLE_LINE1":"1 45232U 20012BG  22103.84540762  .00003986  00000-0  28630-3 0  9993","PERIAPSIS":"546.159","SEMIMAJOR_AXIS":"6925.322","PERIOD":"95.592","ARG_OF_PERICENTER":"51.6517","OBJECT_ID":"2020-012BG","FILE":"3400454","MEAN_MOTION":"15.06408522","MEAN_ELEMENT_THEORY":"SGP4","ELEMENT_SET_NO":"999"},{"TLE_LINE1":"1 45233U 20012BH  22103.82513951  .00008327  00000-0  57714-3 0  9991","MEAN_MOTION_DOT":"0.00008327","OBJECT_NAME":"STARLINK-1238","MEAN_ANOMALY":"297.8274","MEAN_ELEMENT_THEORY":"SGP4","MEAN_MOTION":"15.06407900","ELEMENT_SET_NO":"999","OBJECT_ID":"2020-012BH","ARG_OF_PERICENTER":"62.2888","PERIOD":"95.592","PERIAPSIS":"546.004","SEMIMAJOR_AXIS":"6925.324","FILE":"3400454","TIME_SYSTEM":"UTC","RA_OF_ASC_NODE":"307.5825","OBJECT_TYPE":"PAYLOAD","NORAD_CAT_ID":"45233","APOAPSIS":"548.374","RCS_SIZE":"LARGE","GP_ID":"201172211","REV_AT_EPOCH":"12019","COUNTRY_CODE":"US","INCLINATION":"53.0531","MEAN_MOTION_DDOT":"0.0000000000000","CLASSIFICATION_TYPE":"U","EPOCH":"2022-04-13T19:48:12.053664","LAUNCH_DATE":"2020-02-17","SITE":"AFETR","TLE_LINE2":"2 45233  53.0531 307.5825 0001711  62.2888 297.8274 15.06407900120194","BSTAR":"0.00057714000000","EPHEMERIS_TYPE":"0","CENTER_NAME":"EARTH","ECCENTRICITY":"0.00017110","DECAY_DATE":null,"REF_FRAME":"TEME"},{"OBJECT_NAME":"STARLINK-1243","MEAN_ANOMALY":"285.2663","MEAN_MOTION_DOT":"0.00002568","TLE_LINE1":"1 45234U 20012BJ  22103.86385310  .00002568  00000-0  19125-3 0  9997","PERIOD":"95.593","PERIAPSIS":"546.132","SEMIMAJOR_AXIS":"6925.378","ARG_OF_PERICENTER":"74.8504","OBJECT_ID":"2020-012BJ","FILE":"3400454","MEAN_MOTION":"15.06390370","MEAN_ELEMENT_THEORY":"SGP4","ELEMENT_SET_NO":"999","APOAPSIS":"548.355","GP_ID":"201173463","RCS_SIZE":"LARGE","TIME_SYSTEM":"UTC","RA_OF_ASC_NODE":"327.3937","NORAD_CAT_ID":"45234","OBJECT_TYPE":"PAYLOAD","COUNTRY_CODE":"US","REV_AT_EPOCH":"11990","INCLINATION":"53.0564","EPOCH":"2022-04-13T20:43:56.907840","SITE":"AFETR","LAUNCH_DATE":"2020-02-17","MEAN_MOTION_DDOT":"0.0000000000000","CLASSIFICATION_TYPE":"U","ECCENTRICITY":"0.00016050","DECAY_DATE":null,"REF_FRAME":"TEME","BSTAR":"0.00019125000000","TLE_LINE2":"2 45234  53.0564 327.3937 0001605  74.8504 285.2663 15.06390370119903","CENTER_NAME":"EARTH","EPHEMERIS_TYPE":"0"},{"INCLINATION":"53.0535","EPOCH":"2022-04-13T20:22:42.922560","LAUNCH_DATE":"2020-02-17","SITE":"AFETR","MEAN_MOTION_DDOT":"0.0000000000000","CLASSIFICATION_TYPE":"U","ECCENTRICITY":"0.00017330","DECAY_DATE":null,"REF_FRAME":"TEME","TLE_LINE2":"2 45235  53.0535 327.4671 0001733  61.3686 298.7477 15.06410254119953","BSTAR":"0.00074190000000","EPHEMERIS_TYPE":"0","CENTER_NAME":"EARTH","MEAN_MOTION_DOT":"0.00010789","MEAN_ANOMALY":"298.7477","OBJECT_NAME":"STARLINK-1246","TLE_LINE1":"1 45235U 20012BK  22103.84910790  .00010789  00000-0  74190-3 0  9999","ARG_OF_PERICENTER":"61.3686","OBJECT_ID":"2020-012BK","PERIAPSIS":"545.982","SEMIMAJOR_AXIS":"6925.317","PERIOD":"95.591","FILE":"3400454","MEAN_ELEMENT_THEORY":"SGP4","MEAN_MOTION":"15.06410254","ELEMENT_SET_NO":"999","APOAPSIS":"548.382","RCS_SIZE":"LARGE","GP_ID":"201173714","RA_OF_ASC_NODE":"327.4671","TIME_SYSTEM":"UTC","OBJECT_TYPE":"PAYLOAD","NORAD_CAT_ID":"45235","COUNTRY_CODE":"US","REV_AT_EPOCH":"11995"}];
